{
  "norad_id": 61968,
  "name": "STARLINK-32471",
  "history": [
    {
      "epoch": "2026-03-28T15:45:29.161728Z",
      "apogee_km": 484.0374264505963,
      "perigee_km": 481.97825966029905,
      "latitude_deg": 1.4574572162874818e-05,
      "longitude_deg": 3.0990103180269344,
      "height_km": 482.6697636412437,
      "semi_major_axis_km": 6861.144843055447,
      "eccentricity": 0.00015006,
      "inclination_deg": 43.0051,
      "raan_deg": 65.5444,
      "arg_perigee_deg": 276.4376,
      "mean_anomaly_deg": 83.6305,
      "mean_motion_rev_day": 15.27593777
    }
  ]
}